#dP2026  1 16  0  0  0.00000000     289 d+D   IGc20 FIT AIUB
## 2401 432000.00000000   300.00000000 61056 0.0000000000000
+  122   G01G02G03G04G05G06G07G08G09G10G11G12G13G14G15G16G17
+        G18G19G21G22G23G24G25G26G27G28G29G30G31G32R02R03R04
+        R05R06R07R08R09R11R12R14R15R16R17R18R19R20R21R22R24
+        R26R28E02E03E04E05E06E07E08E09E10E11E12E13E14E15E18
+        E19E21E23E25E26E27E29E30E31E33E34E36C06C07C08C09C10
+        C11C12C13C14C16C19C20C21C22C23C24C25C26C27C28C29C30
+        C32C33C34C35C36C37C38C39C40C41C42C43C44C45C47C48C49
+        J02J03J04  0  0  0  0  0  0  0  0  0  0  0  0  0  0
++         5  5  5  5  5  5  5  5  5  5  5  5  5  5  5  5  5
++         5  5  5  5  5  5  5  5  5  5  5  5  5  5  5  5  5
++         5  5  5  5  5  5  5  5  5  5  5  5  5  5  5  5  5
++         5  6  5  5  5  5  5  5  5  5  5  5  5  5  5  5  5
++         5  5  5  5  5  5  5  5  5  5  5  5  5  5  5  5  5
++         5  5  5  5  5  5  5  5  5  5  5  5  5  5  5  5  5
++         5  5  5  5  5  5  5  5  5  5  5  5  5  5  5  5  5
++         5  6  9  0  0  0  0  0  0  0  0  0  0  0  0  0  0
%c M  cc GPS ccc cccc cccc cccc cccc ccccc ccccc ccccc ccccc
%c cc cc ccc ccc cccc cccc cccc cccc ccccc ccccc ccccc ccccc
%f  1.2500000  1.025000000  0.00000000000  0.000000000000000
%f  0.0000000  0.000000000  0.00000000000  0.000000000000000
%i    0    0    0    0      0      0      0      0         0
%i    0    0    0    0      0      0      0      0         0
/* Center for Orbit Determination in Europe (CODE)                              
/* MGEX orbits and clocks for year-day 2026-0160                                
/* Middle day of a 3-day long-arc multi-GNSS solution                           
/* Systems considered: GPS/GLONASS/Galileo/BeiDou/QZSS                          
/* Product reference - DOI 10.48350/197028                                      
/* PCV:IGS20_2401 OL/AL:FES2014b NONE     YN ORB:CoN CLK:CoN                    
*  2026  1 16 23 40  0.00000000
PG01  20868.901807  12597.460362  10627.110456    343.227735
PG02  20486.275029  17346.471927   -424.204948     18.181164
PG03  13511.865659   5209.491651  22079.882347    596.565815
PG04  23905.421612   2504.776362  11522.126041     38.612650
PG05  -6469.107321 -20474.059719 -15779.564264   -227.394156
PG06   2590.270574 -16771.624430  20460.074672   -603.103318
PG07  18088.974595  -1159.628628 -18952.523665   -136.242200
PG08  16328.321266   9258.266587 -19147.282534    503.450050
PG09  25744.286464  -6385.783806   1937.253704    770.330500
PG10 -10790.531732  23072.545755  -6606.847667   -583.020315
PG11 -10435.504273 -22075.203547  10593.874677   -471.722894
PG12 -12023.412839 -10413.155222  20978.038244   -606.615179
PG13  -8540.025496 -13596.117224 -21470.970372    689.469928
PG14  12836.233754 -21141.722559  -9196.299933    729.223828
PG15 -17275.753886  -7430.740964 -19323.229901    377.308770
PG16   1794.263665  22890.127360 -13348.978029    189.297924
PG17  18634.047621 -13732.514455  13630.254245    -34.739394
PG18 -16624.201772   2972.146941 -20513.851194   -449.163445
PG19  10961.921449 -15084.389802  18630.709579    685.902278
PG21   1474.459988 -25301.101674  -7899.998572    381.736804
PG22  10628.925654 -24371.421647  -2453.598888    -57.972555
PG23 -15070.743661  12405.750310 -17810.068032    600.372191
PG24 -21924.453927 -15035.575673   2512.905623   -160.093081
PG25 -16028.307992   4311.579785  20296.612126    449.544077
PG26  -3668.560530  26077.494937   -668.214688   -312.429228
PG27   5414.828306  14597.653779 -21880.556242    -20.103599
PG28  -3760.502479  16232.124095  20676.188877   -610.250670
PG29 -26266.298223   2648.792991   3535.591291   -391.792013
PG30  11047.788936 -11101.794323 -21267.559693     90.131775
PG31   6089.009728  21064.815911  14481.452175   -172.236059
PG32 -15854.236580  15250.333262  15008.370959   -159.929777
PR02 -11285.738713  16094.355264  16262.977219     12.605962
PR03   6868.150245   8303.016793  23174.043762    136.979438
PR04  19256.903591  -3406.629692  16423.059139    332.503092
PR05  21786.355121 -13255.363417   1028.783228    162.150642
PR06  12176.953333 -16497.808257 -15181.643358     22.885551
PR07  -6433.348846  -8550.037229 -23108.381929    117.447134
PR08 -19379.604483   3843.340686 -16042.662168     -2.495739
PR09    724.204006 -24629.563698  -6406.556256    302.489639
PR11 -10835.034234  -8208.634381  21584.726294     11.654670
PR12  -9029.645541  12402.598811  20391.727635     64.157793
PR14   6813.399538  22223.481614 -10526.994548     31.119681
PR15  11010.694712   7190.714668 -21847.635396     60.102575
PR16   8875.336411 -12446.950692 -20406.007641     44.124315
PR17  17680.269908  14674.608371 -11025.821024    262.317918
PR18  23142.557146   9568.497189   5009.283142    242.590887
PR19  16440.455714  -1656.084868  19410.648861     29.747625
PR20    174.076228 -12034.480736  22506.494073    227.924897
PR21 -15464.971660 -15077.715121  13593.636779   -272.879456
PR22 -22989.290398  -8962.820859  -6415.328285    106.130276
PR24   1233.497723  12453.288135 -22205.376322   -143.262558
PR26 -17769.880567   1720.545067 -18202.448902   -451.425400
PR28   -319.978986 -11921.403948  22554.481874 999999.999999
PE02   -892.785841  25917.707027 -14265.404337     10.912966
PE03   4206.913627  16381.709564  24285.313683      5.903342
PE04 -23804.457281  -8243.884999 -15540.201059    -44.103669
PE05 -17574.282897  14799.937536  18666.986102      5.689368
PE06 -28656.741537  -1997.073939  -7141.264663   -220.390071
PE07  29189.084934  -4462.918800  -1973.073644    -39.295836
PE08  23577.034705   8371.119015  15806.251328    -74.744062
PE09 -29216.132845   4378.455166   1975.361470   -176.075544
PE10 -21490.688428 -11233.745755 -16969.317011   -765.100610
PE11 -18674.257195   -545.984321 -22956.564010   3623.662515
PE12 -20844.470598 -18815.241982  -9321.565089    -19.264066
PE13  18852.582162   1138.276237  22806.600072    -46.600364
PE14  20588.643129   5763.546000 -11675.184898   6390.128690
PE15  20675.150187  19327.337640   8709.195194   -228.964521
PE18 -31831.439043   2206.419152   4953.872432   2346.637224
PE19  -2823.161981 -16447.962871 -24440.679913   2641.732831
PE21  14518.646336 -25505.368007  -3890.853554   -715.401907
PE23    768.126571 -25925.547325  14248.483504    -22.216412
PE25 -14788.077143  25255.697094   4390.167886     21.846747
PE26   5982.395824 -17548.848253  23085.458914    193.342923
PE27  19648.022160  -9769.548422 -19881.155832   -881.891899
PE29  17410.438083 -14969.061679 -18689.175826   -169.851747
PE30  13496.956036  10941.238025 -23981.473433   -634.433844
PE31 -13099.261690 -11527.376761  23908.383011   -112.797131
PE33 -10080.605943 -25778.985650  10497.124636     -1.770759
PE34  10315.151910  25771.967684 -10268.443063   -230.142663
PE36  -6086.827417  17262.086656 -23256.194146   -510.075008
PC06  -1253.373135  31777.316977  27997.419808     31.954809
PC07 -16997.725864  29278.042511 -25146.163032    463.402158
PC08 -13196.086681  39813.561500   2662.736330   -642.839912
PC09   5444.658604  36107.413221  22295.613184    225.900760
PC10  -8086.501801  29697.170502 -28604.974083   -407.797230
PC11  24873.190304   -704.725997  12719.051853    829.381874
PC12  24927.832909  11541.862719  -4928.703758    194.654657
PC13  -7844.624300  40338.071816   8936.951898   -282.526176
PC14  22853.250146 -12105.790616  10414.532047   -307.270246
PC16  -2235.141265  30851.712121  29233.749843   -863.187074
PC19 -20969.988904  18376.218722  -1489.466876   -963.792714
PC20 -21830.811220   5582.167771 -16476.559595   -954.369202
PC21   9268.983342  12380.737074  23242.072169   -890.073518
PC22  -8126.832877  21718.720338  15538.600807    431.115037
PC23   -433.244945 -26660.667110  -8255.525522   -507.847273
PC24  17265.450475   7105.447741 -20760.582072     -5.617264
PC25  11099.329931 -15456.658594 -20438.682610    964.988622
PC26  13338.970086  22520.706999  -9657.502569   -582.693576
PC27 -18401.130293 -15691.140626  13900.730169    582.910780
PC28  -2808.715625 -17089.073385  21886.900952    472.252212
PC29 -19854.480388   8239.513848 -17797.677266    551.118964
PC30 -27357.181661  -4391.071938  -3228.805555    366.311157
PC32  -9316.400720 -12349.080852 -23210.560345   -961.942268
PC33  20864.234918 -18446.791878   1608.130563   -951.929171
PC34  27377.758442   4427.455184   3190.143742    864.384959
PC35   1575.572581  16860.472517 -22204.197177   -234.875330
PC36 -11605.173919  14901.858488  20546.354844    305.299035
PC37 -12193.206676 -23633.823178   8503.826596   -909.190923
PC38 -16636.755638  38057.070962  -6748.886035    269.011402
PC39  -7223.314772  26037.090487  32509.430508    -18.200925
PC40 -22964.192861  22751.137780 -27193.773253   -200.301362
PC41   9121.654903 -21960.525110 -14526.577828   -945.372340
PC42  21013.796757  -3413.590858  18062.099592   -917.291459
PC43  18808.189927  -9168.916323  18462.796136    129.811970
PC44  18967.734763  15041.199273 -13928.215743    899.541353
PC45   -197.140428  26426.665206   8906.360807   -649.330383
PC47 -24626.824857   2392.348378 -12883.814681   -444.838852
PC48 -22876.797754  11572.848139 -11013.174820    693.077177
PC49   9297.698739 -13844.434254  22369.952836   -609.933604
PJ02 -35379.239332  22894.299980   7859.499146     -0.817137
PJ03 -21422.327534  20890.238529 -25022.111773     -0.331270
PJ04 -26326.071344  32579.282373  11693.404097     -3.455764
EOF
